{"type": "FeatureCollection", "features": [{"type": "Feature", "properties": {"ip": "104.193.88.112", "url": "https://pss.bdstatic.com/static/superman/img/topnav/yingxiaoicon-612169cc36.png"}, "geometry": {"type": "Point", "coordinates": [-121.895, 37.3394]}}, {"type": "Feature", "properties": {"ip": "45.113.192.110", "url": "https://mbd.baidu.com/ztbox?action=zpblog&appname=pcsearch&v=2.0&data=%7B%22cateid%22%3A%2299%22%2C%22actiondata%22%3A%7B%22id%22%3A18463%2C%22type%22%3A%220%22%2C%22timestamp%22%3A1753390911508%2C%22content%22%3A%7B%22page%22%3A%22home%22%2C%22source%22%3A%22%22%2C%22from%22%3A%22search%22%2C%22type%22%3A%22show%22%2C%22value%22%3A%22csaitab%22%7D%7D%7D"}, "geometry": {"type": "Point", "coordinates": [103.8501, 1.2897]}}, {"type": "Feature", "properties": {"ip": "103.235.47.176", "url": "https://aisearch.bj.bcebos.com/homepage/input_panel/aisearch_online.png"}, "geometry": {"type": "Point", "coordinates": [114.1747, 22.2783]}}, {"type": "Feature", "properties": {"ip": "103.235.46.102", "url": "https://www.baidu.com/img/PCfb_5bf082d29588c07f842ccde3f97243ea.png"}, "geometry": {"type": "Point", "coordinates": [114.1747, 22.2783]}}, {"type": "Feature", "properties": {"ip": "113.142.207.38", "url": "https://hectorstatic.baidu.com/cd37ed75a9387c5b.js"}, "geometry": {"type": "Point", "coordinates": [108.9286, 34.2583]}}, {"type": "Feature", "properties": {"ip": "45.113.194.250", "url": "https://passport.baidu.com/passApi/js/wrapper.js?cdnversion=1753390911504&_=1753390910574"}, "geometry": {"type": "Point", "coordinates": [114.1747, 22.2783]}}, {"type": "Feature", "properties": {"ip": "116.114.98.35", "url": "https://search-operate.cdn.bcebos.com/d1a58d6230d06b487ee0a005ec6898e4.png"}, "geometry": {"type": "Point", "coordinates": [111.6522, 40.8106]}}]}